STARLINK-31523          
1 59220U 24046V   25299.03881038  .00001467  00000+0  61670-4 0  9993
2 59220  53.1599  60.7913 0001100 100.8372 259.2753 15.30194266 92428
STARLINK-31516          
1 59221U 24046W   25299.07879772  .00001053  00000+0  47662-4 0  9996
2 59221  53.1625  60.3318 0001191  86.1396 273.9741 15.30195277 92430
STARLINK-31490          
1 59222U 24046X   25299.06203286  .00000116  00000+0  16053-4 0  9996
2 59222  53.1607  60.9344 0001293  83.5086 276.6062 15.30184452 92424
STARLINK-31420          
1 59223U 24046Y   25299.05886120 -.00000506  00000+0 -49480-5 0  9996
2 59223  53.1601  60.9149 0001168  91.2254 268.8880 15.30194183 92429
STARLINK-31304          
1 59231U 24049A   25299.08167073 -.00000354  00000+0 -33480-5 0  9994
2 59231  43.0008 173.0090 0001102 280.8472  79.2255 15.27587307 91939
STARLINK-31305          
1 59232U 24049B   25299.09305926 -.00003623  00000+0 -12211-3 0  9996
2 59232  42.9995 183.4417 0001120 275.7058  84.3666 15.27599797 91809
STARLINK-31459          
1 59233U 24049C   25299.04309934 -.00000348  00000+0 -31382-5 0  9998
2 59233  43.0004 183.9463 0001252 276.6776  83.3933 15.27580891 91803
STARLINK-31438          
1 59234U 24049D   25299.06112317 -.00002293  00000+0 -73823-4 0  9994
2 59234  43.0030 172.8376 0001113 285.3983  74.6746 15.27581417 91930
STARLINK-31467          
1 59235U 24049E   25299.10591227  .00001418  00000+0  61047-4 0  9992
2 59235  42.9990 183.5563 0001242 269.9122  90.1587 15.27581834 91824
STARLINK-31444          
1 59236U 24049F   25298.79009748 -.00006841  00000+0 -23921-3 0  9994
2 59236  42.9990 115.8776 0001233 252.0173 108.0545 15.27592488 92548
STARLINK-31505          
1 59237U 24049G   25299.04694096  .00000031  00000+0  10649-4 0  9997
2 59237  43.0032 183.9882 0002018 273.2910  86.7711 15.27609421 91810
STARLINK-31494          
1 59238U 24049H   25299.02511159 -.00002877  00000+0 -95043-4 0  9997
2 59238  42.9998 183.8118 0001431 280.5109  79.5581 15.27588495 91812
STARLINK-31303          
1 59239U 24049J   25299.01240932 -.00005000  00000+0 -17216-3 0  9991
2 59239  43.0033 173.2692 0001511 269.7877  90.2801 15.27605405 91934
STARLINK-31408          
1 59240U 24049K   25299.06496718 -.00001264  00000+0 -36478-4 0  9993
2 59240  43.0011 184.1181 0000294  13.5261 346.5598 15.27556342 91817
STARLINK-31427          
1 59241U 24049L   25299.06879922 -.00000627  00000+0 -13266-4 0  9998
2 59241  43.0009 184.1156 0001346 259.6766 100.3934 15.27568647 91810
STARLINK-31423          
1 59242U 24049M   25299.06238565  .00000865  00000+0  40963-4 0  9997
2 59242  42.9996 184.0939 0000817 271.5845  88.4913 15.27571017 91813
STARLINK-31433          
1 59243U 24049N   25299.03667579  .00001405  00000+0  60574-4 0  9997
2 59243  42.9981 183.8961 0001218 285.0217  75.0499 15.27574018 91814
STARLINK-31285          
1 59244U 24049P   25299.08663485 -.00008899  00000+0 -31387-3 0  9990
2 59244  43.0010 183.4146 0001639 272.5475  87.5189 15.27618521 91817
STARLINK-31268          
1 59245U 24049Q   25299.01401213 -.00001919  00000+0 -60197-4 0  9991
2 59245  42.9989 180.1846 0001156 276.2905  83.7815 15.27591467 91841
STARLINK-31284          
1 59246U 24049R   25299.09820973  .00000798  00000+0  38525-4 0  9990
2 59246  42.9985 183.4961 0001069 271.9395  88.1334 15.27573081 91814
STARLINK-31424          
1 59247U 24049S   25299.04229635  .00002186  00000+0  88934-4 0  9996
2 59247  43.0007 180.4764 0000920 268.8131  91.2615 15.27578634 91847
STARLINK-31405          
1 59248U 24049T   25299.05466286 -.00000425  00000+0 -59085-5 0  9995
2 59248  43.0016 184.0330 0001103 282.2165  77.8563 15.27575908 91807
STARLINK-31426          
1 59249U 24049U   25299.05851964  .00000778  00000+0  37780-4 0  9993
2 59249  43.0027 184.0564 0000944 297.2386  62.8369 15.27574904 91805
STARLINK-31407          
1 59250U 24049V   25299.04440457  .00002444  00000+0  98324-4 0  9998
2 59250  42.9997 172.7132 0001275 297.6253  62.4469 15.27578798 91937
STARLINK-31393          
1 59252U 24049X   25299.05517865 -.00000921  00000+0 -23938-4 0  9998
2 59252  43.0016 169.3119 0001443 271.7388  88.3298 15.27569184 91980
STARLINK-31425          
1 59253U 24049Y   25299.09435059 -.00001462  00000+0 -43607-4 0  9993
2 59253  43.0000 183.4681 0001138 277.6634  82.4088 15.27578194 91810
STARLINK-31659          
1 59254U 24050A   25298.77810583  .00012744  00000+0  44108-3 0  9998
2 59254  53.1593  85.4722 0000949  78.8481 281.2626 15.30243148 91074
STARLINK-31629          
1 59255U 24050B   25299.11262264  .00002157  00000+0  84954-4 0  9996
2 59255  53.1599  86.1311 0001039  84.4671 275.6448 15.30193236 89942
STARLINK-31652          
1 59256U 24050C   25298.70807495  .00001297  00000+0  55921-4 0  9998
2 59256  53.1593  87.8758 0001162  85.7722 274.3411 15.30188424 89880
STARLINK-31655          
1 59257U 24050D   25298.69519866  .00038717  00000+0  12521-2 0  9993
2 59257  53.1613  49.6749 0002075  35.9297 324.1844 15.31720412 90413
STARLINK-31637          
1 59258U 24050E   25298.83238861  .00000303  00000+0  22354-4 0  9990
2 59258  53.1603  87.2279 0001063  94.8744 265.2378 15.30183999 89907
STARLINK-31506          
1 59259U 24050F   25298.71756928  .00001171  00000+0  51650-4 0  9992
2 59259  53.1580  87.9319 0001188  84.9481 275.1655 15.30192280 89888
STARLINK-31639          
1 59261U 24050H   25298.70490646  .00000221  00000+0  19578-4 0  9994
2 59261  53.1582  87.8532 0001065  79.7633 280.3487 15.30190256 89886
STARLINK-31598          
1 59263U 24050K   25299.14533181  .00002798  00000+0  10655-3 0  9994
2 59263  53.1607  86.3145 0000864  86.5075 273.6025 15.30197335 89947
STARLINK-31645          
1 59264U 24050L   25299.12000968  .00026987  00000+0  91971-3 0  9991
2 59264  53.1587  86.1760 0001210  77.8294 282.2842 15.30209824 89948
STARLINK-31646          
1 59265U 24050M   25298.73445309  .00001249  00000+0  54313-4 0  9994
2 59265  53.1603  88.0344 0001235  87.1160 272.9982 15.30189982 89886
STARLINK-31648          
1 59266U 24050N   25298.84186516 -.00003258  00000+0 -97904-4 0  9996
2 59266  53.1578  87.2848 0001493 115.2607 244.8548 15.30200820 89907
STARLINK-31579          
1 59267U 24050P   25299.11684578 -.00001053  00000+0 -23426-4 0  9998
2 59267  53.1588  86.1553 0001223  86.9835 273.1305 15.30191405 89946
STARLINK-31627          
1 59268U 24050Q   25298.74711413  .00019467  00000+0  66746-3 0  9993
2 59268  53.1601  88.1106 0001160  88.5142 271.5992 15.30209822 89888
STARLINK-31609          
1 59269U 24050R   25299.12318666  .00017080  00000+0  58710-3 0  9991
2 59269  53.1594  86.1957 0001275  77.5448 282.5696 15.30221253 89948
STARLINK-31616          
1 59270U 24050S   25299.12951109  .00001298  00000+0  55953-4 0  9999
2 59270  53.1599  86.2315 0000915  97.5516 262.5589 15.30187207 89941
STARLINK-31630          
1 59271U 24050T   25299.07207782  .00001551  00000+0  64486-4 0  9998
2 59271  53.1586  73.7891 0001164  83.8427 276.2706 15.30194209 90118
STARLINK-31623          
1 59272U 24050U   25299.14311272  .00000384  00000+0  25105-4 0  9995
2 59272  53.1610  85.6154 0001256  82.4288 277.6855 15.30199119 89958
STARLINK-31595          
1 59273U 24050V   25299.10629485  .00001970  00000+0  78636-4 0  9999
2 59273  53.1578  86.1039 0001175  86.5319 273.5816 15.30194251 89943
STARLINK-31463          
1 59296U 24056A   25298.62489537 -.00010441  00000+0 -37004-3 0  9996
2 59296  43.0022 269.5327 0000965 258.4391 101.6353 15.27614325 90543
STARLINK-31487          
1 59297U 24056B   25299.00529125  .00007855  00000+0  29436-3 0  9991
2 59297  43.0001 271.5507 0001451 260.0650 100.0038 15.27611746 90673
STARLINK-31386          
1 59298U 24056C   25299.18348972  .00001456  00000+0  62437-4 0  9990
2 59298  43.0032 270.3077 0001020 254.1838 105.8901 15.27570252 90589
STARLINK-31409          
1 59299U 24056D   25299.18702351  .00000204  00000+0  16961-4 0  9997
2 59299  43.0021 263.4125 0001683 272.6423  87.4236 15.27582345 90789
STARLINK-31489          
1 59300U 24056E   25298.64498048  .00000605  00000+0  31513-4 0  9990
2 59300  43.0003 273.1427 0000389  41.5157 318.5724 15.27575334 90504
STARLINK-31502          
1 59301U 24056F   25298.63823409  .00000890  00000+0  41857-4 0  9991
2 59301  43.0033 266.1666 0001065 284.7071  75.3662 15.27576624 90583
STARLINK-31447          
1 59302U 24056G   25298.66296196  .00000289  00000+0  20035-4 0  9999
2 59302  43.0046 273.2832 0001509 265.1672  94.9008 15.27576690 90501
STARLINK-31504          
1 59303U 24056H   25299.19374485  .00003040  00000+0  11989-3 0  9992
2 59303  43.0048 270.3812 0001246 242.7424 117.3300 15.27599565 90583
STARLINK-31474          
1 59304U 24056J   25299.19216366  .00000887  00000+0  41742-4 0  9993
2 59304  42.9994 263.4448 0001413 272.7692  87.2998 15.27578325 90664
STARLINK-31500          
1 59305U 24056K   25299.18991831 -.00000219  00000+0  15767-5 0  9999
2 59305  43.0045 270.3537 0000782 239.4560 120.6215 15.27575172 90584
STARLINK-31480          
1 59306U 24056L   25298.65269021  .00000427  00000+0  25025-4 0  9997
2 59306  43.0025 273.2047 0000689 313.0043  47.0751 15.27576308 90503
STARLINK-31282          
1 59307U 24056M   25299.19762213  .00000480  00000+0  26958-4 0  9994
2 59307  43.0038 270.4125 0001217 248.7665 111.3057 15.27578025 90586
STARLINK-31485          
1 59308U 24056N   25299.00917049  .00002191  00000+0  89129-4 0  9994
2 59308  43.0013 271.5738 0001769 285.8292  74.2365 15.27582094 90559
STARLINK-31455          
1 59309U 24056P   25299.20581272  .00000361  00000+0  22651-4 0  9996
2 59309  43.0003 267.0126 0000744 258.6144 101.4624 15.27572925 90627
STARLINK-31475          
1 59310U 24056Q   25299.20325154 -.00001025  00000+0 -27750-4 0  9998
2 59310  43.0000 266.9941 0000526 273.3097  86.7695 15.27572523 90748
